[{"OBJECT_NAME":"STARLINK-30844","OBJECT_ID":"2023-180B","EPOCH":"2026-03-09T22:59:53.948256","MEAN_MOTION":15.27435532,"ECCENTRICITY":0.00020225,"INCLINATION":43.0027,"RA_OF_ASC_NODE":51.3331,"ARG_OF_PERICENTER":281.5481,"MEAN_ANOMALY":78.5143,"EPHEMERIS_TYPE":0,"CLASSIFICATION_TYPE":"U","NORAD_CAT_ID":58403,"ELEMENT_SET_NO":999,"REV_AT_EPOCH":12754,"BSTAR":0.0044836847,"MEAN_MOTION_DOT":0.00124673,"MEAN_MOTION_DDOT":0},{"OBJECT_NAME":"EXPLORER 7","OBJECT_ID":"1959-009A","EPOCH":"2026-03-09T22:10:28.426368","MEAN_MOTION":15.26652664,"ECCENTRICITY":0.00808181,"INCLINATION":50.2405,"RA_OF_ASC_NODE":230.2318,"ARG_OF_PERICENTER":85.1115,"MEAN_ANOMALY":275.9066,"EPHEMERIS_TYPE":0,"CLASSIFICATION_TYPE":"U","NORAD_CAT_ID":22,"ELEMENT_SET_NO":999,"REV_AT_EPOCH":78517,"BSTAR":0.00064628265,"MEAN_MOTION_DOT":0.00018598,"MEAN_MOTION_DDOT":0}]
